COMMENT,ORIGINATOR,NORAD_CAT_ID,OBJECT_NAME,OBJECT_TYPE,CLASSIFICATION_TYPE,INTLDES,EPOCH,EPOCH_MICROSECONDS,MEAN_MOTION,ECCENTRICITY,INCLINATION,RA_OF_ASC_NODE,ARG_OF_PERICENTER,MEAN_ANOMALY,EPHEMERIS_TYPE,ELEMENT_SET_NO,REV_AT_EPOCH,BSTAR,MEAN_MOTION_DOT,MEAN_MOTION_DDOT,FILE,TLE_LINE0,TLE_LINE1,TLE_LINE2,OBJECT_ID,OBJECT_NUMBER,SEMIMAJOR_AXIS,PERIOD,APOGEE,PERIGEE,DECAYED,date
GENERATED VIA SPACETRACK.ORG API,18 SPCS,46300,SPACEBEE-21,PAYLOAD,U,20061AE,2023/4/30 4:04,77920,15.59425684,0.0005138,97.4003,197.1628,222.3033,137.7828,0,999,14694,0.0028065,0.00227727,0,3897069,0 SPACEBEE-21,1 46300U 20061AE  23120.16971155  .00227727  00000-0  28065-2 0  9995,2 46300  97.4003 197.1628 0005138 222.3033 137.7828 15.59425684146943,2020-061AE,46300,6767.455,92.342,392.797,385.843,1,
